STARLINK-37361          
1 69134U 26110L   26167.16668980 -.00045773  00000+0 -14227-2 0  9994
2 69134  97.2843   3.6002 0002075  89.7989 250.7047 15.33473025  5499
STARLINK-37372          
1 69135U 26110M   26167.16668980 -.02469263  00000+0 -67006-1 0  9993
2 69135  97.2840   3.5950 0002076 101.1929 208.2584 15.41286508  5493
STARLINK-37531          
1 69136U 26110N   26167.16668980 -.00042715  00000+0 -13277-2 0  9993
2 69136  97.2844   3.6118 0001736  96.5222 274.0182 15.33456332  5490
STARLINK-37662          
1 69137U 26110P   26167.16668980 -.00871927  00000+0 -22672-1 0  9997
2 69137  97.2843   3.5955 0001586  94.1212 218.9480 15.41372601  5497
STARLINK-37658          
1 69138U 26110Q   26167.07436808  .00044516  00000+0  81525-3 0  9998
2 69138  97.2827   3.4252 0001185  79.8804 280.2581 15.49199506  5438
STARLINK-37659          
1 69139U 26110R   26167.08207485  .00038808  00000+0  71037-3 0  9991
2 69139  97.2829   3.4161 0001199  86.7061 273.4328 15.49242554  5432
STARLINK-37653          
1 69140U 26110S   26167.08453051  .00045700  00000+0  83714-3 0  9999
2 69140  97.2823   3.4141 0002176  94.4728 265.6772 15.49185520  5433
STARLINK-37654          
1 69141U 26110T   26166.52422448  .00038342  00000+0  70164-3 0  9993
2 69141  97.2827   2.9503 0001818  88.7991 271.3469 15.49252690  5355
STARLINK-37655          
1 69142U 26110U   26167.16668980 -.00027834  00000+0 -77138-3 0  9992
2 69142  97.2849   3.6279 0001567  99.5481 307.1819 15.36970975  5494
STARLINK-37636          
1 69143U 26110V   26167.16668980 -.00040423  00000+0 -12563-2 0  9992
2 69143  97.2848   3.6573 0002141  81.4617  34.0012 15.33447045  5496
STARLINK-37638          
1 69144U 26110W   26167.16668980 -.00043242  00000+0 -13435-2 0  9994
2 69144  97.2850   3.6644 0001427  85.8059  44.7248 15.33473573  5497
STARLINK-37657          
1 69145U 26110X   26167.10578471 -.00648296  00000+0 -13300-1 0  9994
2 69145  97.2837   3.5380 0003799 100.4915 259.6764 15.48365546  5449
STARLINK-37639          
1 69146U 26110Y   26167.16668980 -.00044820  00000+0 -13932-2 0  9991
2 69146  97.2850   3.6778 0001680  86.0855  74.4577 15.33466955  5542
STARLINK-37661          
1 69147U 26110Z   26166.99803198  .00028611  00000+0  52531-3 0  9991
2 69147  97.2846   3.3767 0001235  85.8097 274.3295 15.49216707  5424
STARLINK-37395          
1 69148U 26111A   26167.16668980 -.00760604  00000+0 -90078-2 0  9995
2 69148  53.1602 157.1094 0001025  79.9694 310.5209 15.63043160  5381
STARLINK-37346          
1 69149U 26111B   26167.16668980  .00005973  00000+0  11541-3 0  9994
2 69149  53.1597 157.6978 0001569  83.2325  16.9214 15.49301856  5389
STARLINK-37332          
1 69150U 26111C   26167.16668980  .00007639  00000+0  14532-3 0  9990
2 69150  53.1595 158.0229 0001148  87.8542 211.4959 15.49299553  5385
STARLINK-37297          
1 69151U 26111D   26167.16668980 -.02514146  00000+0 -34869-1 0  9994
2 69151  53.1598 157.0547 0001072  72.1757 344.8929 15.60193075  5385
STARLINK-37317          
1 69152U 26111E   26167.16668980 -.02515002  00000+0 -29041-1 0  9993
2 69152  53.1596 156.9108 0001312  81.5600  46.0944 15.64831293  5386
STARLINK-37374          
1 69153U 26111F   26167.19327447  .00039887  00000+0  72081-3 0  9999
2 69153  53.1602 158.0723 0000959 104.0559 256.0557 15.49338717  4086
STARLINK-37235          
1 69154U 26111G   26167.15016139  .00051982  00000+0  93506-3 0  9994
2 69154  53.1586 158.5216 0001097  91.0732 269.0402 15.49352326  4076
STARLINK-37329          
1 69155U 26111H   26167.16668980 -.02571810  00000+0 -30030-1 0  9995
2 69155  53.1596 156.9151 0001187  77.7494  47.7078 15.64642127  5387
STARLINK-37345          
1 69156U 26111J   26167.16668980 -.02593149  00000+0 -28330-1 0  9995
2 69156  53.1596 156.8646 0001307  86.4703  63.6999 15.66315108  5387
STARLINK-37353          
1 69157U 26111K   26167.16668980 -.02580245  00000+0 -27841-1 0  9995
2 69157  53.1597 156.8578 0001342  86.9238  66.5662 15.66599921  5386
STARLINK-37363          
1 69158U 26111L   26167.16668980 -.02555897  00000+0 -27802-1 0  9998
2 69158  53.1599 156.8613 0001324  87.1995  64.4226 15.66366164  5386
STARLINK-37343          
1 69159U 26111M   26167.19341148  .00076863  00000+0  13732-2 0  9991
2 69159  53.1601 158.0719 0001252 136.0278 224.0831 15.49377416  4085
STARLINK-37328          
1 69160U 26111N   26167.16668980 -.02563567  00000+0 -27033-1 0  9990
2 69160  53.1597 156.8246 0001438  88.5820  81.0751 15.67134001  5389
STARLINK-37311          
1 69161U 26111P   26167.16668980 -.02535691  00000+0 -23636-1 0  9993
2 69161  53.1594 156.9258 0001258  86.6697  33.6328 15.70061119  5388
STARLINK-36286          
1 69162U 26111Q   26167.16668980 -.02625077  00000+0 -39928-1 0  9993
2 69162  53.1604 157.1487 0000796  94.9146 275.2877 15.57334946  5384
STARLINK-37196          
1 69163U 26111R   26165.56034997  .00136844  00000+0  77789-3 0  9995
2 69163  53.1566 164.9214 0001435  48.8780 311.2365 15.78098124  3849
