OBJECT_NAME,OBJECT_ID,EPOCH,MEAN_MOTION,ECCENTRICITY,INCLINATION,RA_OF_ASC_NODE,ARG_OF_PERICENTER,MEAN_ANOMALY,EPHEMERIS_TYPE,CLASSIFICATION_TYPE,NORAD_CAT_ID,ELEMENT_SET_NO,REV_AT_EPOCH,BSTAR,MEAN_MOTION_DOT,MEAN_MOTION_DDOT
STARLINK-37361,2026-110L,2026-06-16T04:00:01.998720,15.33473025,.0002075,97.2843,3.6002,89.7989,250.7047,0,U,69134,999,549,-.14227E-2,-.45773E-3,0
STARLINK-37372,2026-110M,2026-06-16T04:00:01.998720,15.41286508,.0002076,97.2840,3.5950,101.1929,208.2584,0,U,69135,999,549,-.67006E-1,-.2469263E-1,0
STARLINK-37531,2026-110N,2026-06-16T04:00:01.998720,15.33456332,.0001736,97.2844,3.6118,96.5222,274.0182,0,U,69136,999,549,-.13277E-2,-.42715E-3,0
STARLINK-37662,2026-110P,2026-06-16T04:00:01.998720,15.41372601,.0001586,97.2843,3.5955,94.1212,218.9480,0,U,69137,999,549,-.22672E-1,-.871927E-2,0
STARLINK-37658,2026-110Q,2026-06-16T01:47:05.402112,15.49199506,.0001185,97.2827,3.4252,79.8804,280.2581,0,U,69138,999,543,.81525E-3,.44516E-3,0
STARLINK-37659,2026-110R,2026-06-16T01:58:11.267040,15.49242554,.0001199,97.2829,3.4161,86.7061,273.4328,0,U,69139,999,543,.71037E-3,.38808E-3,0
STARLINK-37653,2026-110S,2026-06-16T02:01:43.436064,15.49185520,.0002176,97.2823,3.4141,94.4728,265.6772,0,U,69140,999,543,.83714E-3,.457E-3,0
STARLINK-37654,2026-110T,2026-06-15T12:34:52.995072,15.49252690,.00018186,97.2827,2.9503,88.7991,271.3469,0,U,69141,999,535,.70164466E-3,.38342E-3,0
STARLINK-37655,2026-110U,2026-06-16T04:00:01.998720,15.36970975,.0001567,97.2849,3.6279,99.5481,307.1819,0,U,69142,999,549,-.77138E-3,-.27834E-3,0
STARLINK-37636,2026-110V,2026-06-16T04:00:01.998720,15.33447045,.0002141,97.2848,3.6573,81.4617,34.0012,0,U,69143,999,549,-.12563E-2,-.40423E-3,0
STARLINK-37638,2026-110W,2026-06-16T04:00:01.998720,15.33473573,.0001427,97.2850,3.6644,85.8059,44.7248,0,U,69144,999,549,-.13435E-2,-.43242E-3,0
STARLINK-37657,2026-110X,2026-06-16T02:32:19.798944,15.48365546,.0003799,97.2837,3.5380,100.4915,259.6764,0,U,69145,999,544,-.133E-1,-.648296E-2,0
STARLINK-37639,2026-110Y,2026-06-16T04:00:01.998720,15.33466955,.000168,97.2850,3.6778,86.0855,74.4577,0,U,69146,999,554,-.13932E-2,-.4482E-3,0
STARLINK-37661,2026-110Z,2026-06-15T23:57:09.963072,15.49216707,.0001235,97.2846,3.3767,85.8097,274.3295,0,U,69147,999,542,.52531E-3,.28611E-3,0
STARLINK-37395,2026-111A,2026-06-16T04:00:01.998720,15.63043160,.0001025,53.1602,157.1094,79.9694,310.5209,0,U,69148,999,538,-.90078E-2,-.760604E-2,0
STARLINK-37346,2026-111B,2026-06-16T04:00:01.998720,15.49301856,.0001569,53.1597,157.6978,83.2325,16.9214,0,U,69149,999,538,.11541E-3,.5973E-4,0
STARLINK-37332,2026-111C,2026-06-16T04:00:01.998720,15.49299553,.0001148,53.1595,158.0229,87.8542,211.4959,0,U,69150,999,538,.14532E-3,.7639E-4,0
STARLINK-37297,2026-111D,2026-06-16T04:00:01.998720,15.60193075,.0001072,53.1598,157.0547,72.1757,344.8929,0,U,69151,999,538,-.34869E-1,-.2514146E-1,0
STARLINK-37317,2026-111E,2026-06-16T04:00:01.998720,15.64831293,.0001312,53.1596,156.9108,81.5600,46.0944,0,U,69152,999,538,-.29041E-1,-.2515002E-1,0
STARLINK-37374,2026-111F,2026-06-16T04:38:18.914208,15.49338717,.0000959,53.1602,158.0723,104.0559,256.0557,0,U,69153,999,408,.72081E-3,.39887E-3,0
STARLINK-37235,2026-111G,2026-06-16T03:36:13.944096,15.49352326,.0001097,53.1586,158.5216,91.0732,269.0402,0,U,69154,999,407,.93506E-3,.51982E-3,0
STARLINK-37329,2026-111H,2026-06-16T04:00:01.998720,15.64642127,.0001187,53.1596,156.9151,77.7494,47.7078,0,U,69155,999,538,-.3003E-1,-.257181E-1,0
STARLINK-37345,2026-111J,2026-06-16T04:00:01.998720,15.66315108,.0001307,53.1596,156.8646,86.4703,63.6999,0,U,69156,999,538,-.2833E-1,-.2593149E-1,0
STARLINK-37353,2026-111K,2026-06-16T04:00:01.998720,15.66599921,.0001342,53.1597,156.8578,86.9238,66.5662,0,U,69157,999,538,-.27841E-1,-.2580245E-1,0
STARLINK-37363,2026-111L,2026-06-16T04:00:01.998720,15.66366164,.0001324,53.1599,156.8613,87.1995,64.4226,0,U,69158,999,538,-.27802E-1,-.2555897E-1,0
STARLINK-37343,2026-111M,2026-06-16T04:38:30.751872,15.49377416,.0001252,53.1601,158.0719,136.0278,224.0831,0,U,69159,999,408,.13732E-2,.76863E-3,0
STARLINK-37328,2026-111N,2026-06-16T04:00:01.998720,15.67134001,.0001438,53.1597,156.8246,88.5820,81.0751,0,U,69160,999,538,-.27033E-1,-.2563567E-1,0
STARLINK-37311,2026-111P,2026-06-16T04:00:01.998720,15.70061119,.0001258,53.1594,156.9258,86.6697,33.6328,0,U,69161,999,538,-.23636E-1,-.2535691E-1,0
STARLINK-36286,2026-111Q,2026-06-16T04:00:01.998720,15.57334946,.0000796,53.1604,157.1487,94.9146,275.2877,0,U,69162,999,538,-.39928E-1,-.2625077E-1,0
STARLINK-37196,2026-111R,2026-06-14T13:26:54.237408,15.78098124,.0001435,53.1566,164.9214,48.8780,311.2365,0,U,69163,999,384,.77789E-3,.136844E-2,0
